STARLINK-2265
1 18002C 21024AB  21326.18281409  .00002609  00000-0  17485-3 0  3269
2 18002  53.0540 102.9051 0001882  79.1717  52.7320 15.06389255    16
